     2.100          NAVIGATION                              RINEX VERSION / TYPE
fic2rin                                 03/23/2009 01:14:13 PGM / RUN BY / DATE
                                                            END OF HEADER
 9 09  3 22  4  0  0.0  .466587953269D-04  .204636307899D-11  .000000000000D+00
     .420000000000D+02  .303750000000D+02  .449554440033D-08 -.270269015997D+01
     .152550637722D-05  .202687446726D-01  .290572643280D-05  .515364182854D+04
     .144000000000D+05  .277534127235D-06 -.244250055065D+01  .800937414169D-07
     .975441188755D+00  .328437500000D+03  .146551556346D+01 -.795140263641D-08
     .282868925483D-09  .100000000000D+01  .152400000000D+04  .000000000000D+00
     .240000000000D+01  .000000000000D+00 -.558793544769D-08  .420000000000D+02
     .720600000000D+04  .400000000000D+01
10 09  3 22  4  0  0.0 -.130478292704D-04 -.568434188608D-12  .000000000000D+00
     .500000000000D+02 -.603125000000D+01  .458269088747D-08  .870971620813D+00
    -.234693288803D-06  .866975868121D-02  .794604420662D-05  .515356388283D+04
     .144000000000D+05 -.633299350739D-07  .180557529778D+01  .782310962677D-07
     .958935780416D+00  .226343750000D+03  .610970217362D+00 -.812319550656D-08
    -.421803284086D-09  .100000000000D+01  .152400000000D+04  .000000000000D+00
     .240000000000D+01  .000000000000D+00 -.279396772385D-08  .500000000000D+02
     .720600000000D+04  .400000000000D+01
11 09  3 22  4  0  0.0  .387756153941D-05 -.125055521494D-11  .000000000000D+00
     .880000000000D+02  .407187500000D+02  .619418658416D-08 -.191603908478D+01
     .204332172871D-05  .924241752364D-02  .595115125179D-05  .515367329597D+04
     .144000000000D+05  .577419996262D-07  .524315310923D+00 -.119209289551D-06
     .889970640312D+00  .226000000000D+03  .692069048711D+00 -.878250868388D-08
     .330728061866D-09  .100000000000D+01  .152400000000D+04  .000000000000D+00
     .340000000000D+01  .000000000000D+00 -.121071934700D-07  .880000000000D+02
     .720600000000D+04  .400000000000D+01
12 09  3 22  4  0  0.0 -.303513370454D-03  .443378667114D-11  .000000000000D+00
     .101000000000D+03 -.987187500000D+02  .448518682603D-08 -.162668996763D+01
    -.511109828949D-05  .331679894589D-02  .696256756783D-05  .515369723511D+04
     .144000000000D+05 -.819563865662D-07 -.135600733407D+01 -.353902578354D-07
     .966091780252D+00  .244843750000D+03 -.784371600134D+00 -.814855370568D-08
    -.265368196508D-09  .100000000000D+01  .152400000000D+04  .000000000000D+00
     .240000000000D+01  .000000000000D+00 -.121071934700D-07  .101000000000D+03
     .720600000000D+04  .400000000000D+01
13 09  3 22  4  0  0.0  .292244367301D-03  .113686837722D-11  .000000000000D+00
     .420000000000D+02  .585937500000D+02  .360800743085D-08  .681906860478D+00
     .298768281937D-05  .393797399011D-02  .936165452003D-05  .515374125481D+04
     .144000000000D+05 -.577419996262D-07  .288393623760D+01  .447034835815D-07
     .995380354021D+00  .215437500000D+03  .151780904629D+01 -.768174854709D-08
     .134291308058D-09  .100000000000D+01  .152400000000D+04  .000000000000D+00
     .240000000000D+01  .000000000000D+00 -.111758708954D-07  .420000000000D+02
     .720600000000D+04  .400000000000D+01
15 09  3 22  4  0  0.0 -.271887052804D-03 -.466116034659D-11  .000000000000D+00
     .460000000000D+02  .670312500000D+02  .445304262996D-08  .691697969300D+00
     .348500907421D-05  .143053906504D-02  .913068652153D-05  .515360018730D+04
     .144000000000D+05  .353902578354D-07  .281451024319D+01 -.465661287308D-07
     .956980158842D+00  .201125000000D+03 -.578996451606D+00 -.803747765035D-08
     .106790162525D-09  .100000000000D+01  .152400000000D+04  .000000000000D+00
     .240000000000D+01  .000000000000D+00 -.977888703346D-08  .460000000000D+02
     .720600000000D+04  .400000000000D+01
16 09  3 22  4  0  0.0  .657080672681D-04 -.295585778076D-11  .000000000000D+00
     .930000000000D+02 -.909375000000D+02  .450161608181D-08  .213985561038D+01
    -.441446900368D-05  .521560641937D-02  .626780092716D-05  .515378694725D+04
     .144000000000D+05  .577419996262D-07 -.133915359324D+01  .819563865662D-07
     .967595028057D+00  .263125000000D+03 -.380559295936D+00 -.807890794752D-08
    -.318584698903D-09  .100000000000D+01  .152400000000D+04  .000000000000D+00
     .240000000000D+01  .000000000000D+00 -.977888703346D-08  .930000000000D+02
     .720600000000D+04  .400000000000D+01
17 09  3 22  4  0  0.0  .511193647981D-04  .159161572810D-11  .000000000000D+00
     .530000000000D+02 -.275000000000D+01  .437018203562D-08  .104831900567D+01
    -.651925802231D-07  .435351626948D-02  .106096267700D-04  .515365897751D+04
     .144000000000D+05 -.987201929092D-07 -.297034819138D+00  .875443220139D-07
     .960124339913D+00  .176062500000D+03 -.269883058124D+01 -.789354308347D-08
     .118933525487D-09  .100000000000D+01  .152400000000D+04  .000000000000D+00
     .240000000000D+01  .000000000000D+00 -.102445483208D-07  .530000000000D+02
     .720600000000D+04  .400000000000D+01
18 09  3 22  4  0  0.0 -.726152211428D-04  .352429196937D-11  .000000000000D+00
     .105000000000D+03 -.130937500000D+02  .490449000598D-08  .227625149433D+01
    -.584870576859D-06  .100295020966D-01  .816956162453D-05  .515376126671D+04
     .144000000000D+05 -.182539224625D-06  .181202340911D+01 -.221654772758D-06
     .942992760211D+00  .210937500000D+03 -.243494027633D+01 -.817319758934D-08
    -.304298389535D-09  .100000000000D+01  .152400000000D+04  .000000000000D+00
     .240000000000D+01  .000000000000D+00 -.107102096081D-07  .105000000000D+03
     .720600000000D+04  .400000000000D+01
19 09  3 22  4  0  0.0  .301240943372D-04 -.795807864051D-12  .000000000000D+00
     .970000000000D+02 -.102500000000D+02  .439946896983D-08  .362449748184D+00
    -.696629285812D-06  .535904185381D-02  .102296471596D-04  .515358446884D+04
     .144000000000D+05  .763684511185D-07 -.240809824433D+00 -.670552253723D-07
     .957868774782D+00  .180500000000D+03 -.380872914851D+00 -.798818988303D-08
     .130362572982D-09  .100000000000D+01  .152400000000D+04  .000000000000D+00
     .240000000000D+01  .000000000000D+00 -.149011611938D-07  .970000000000D+02
     .720600000000D+04  .400000000000D+01
20 09  3 22  4  0  0.0  .874986872077D-04 -.102318153949D-11  .000000000000D+00
     .950000000000D+02 -.176562500000D+02  .489770400903D-08  .244285939421D+01
    -.892207026482D-06  .403178203851D-02  .741332769394D-05  .515364984322D+04
     .144000000000D+05  .428408384323D-07  .175819864019D+01  .186264514923D-08
     .942596110454D+00  .227343750000D+03  .132861477821D+01 -.820427031222D-08
    -.283226083217D-09  .100000000000D+01  .152400000000D+04  .000000000000D+00
     .240000000000D+01  .000000000000D+00 -.651925802231D-08  .950000000000D+02
     .720600000000D+04  .400000000000D+01
22 09  3 22  4  0  0.0  .203093979508D-03 -.568434188608D-12  .000000000000D+00
     .620000000000D+02 -.174375000000D+02  .506413951317D-08  .120671583896D+01
    -.841915607452D-06  .486423831899D-02  .775419175625D-05  .515366177559D+04
     .144000000000D+05 -.119209289551D-06  .181785558951D+01 -.484287738800D-07
     .940655777837D+00  .217531250000D+03 -.184437674652D+01 -.838963517627D-08
    -.350014579512D-09  .100000000000D+01  .152400000000D+04  .000000000000D+00
     .340000000000D+01  .000000000000D+00 -.181607902050D-07  .620000000000D+02
     .720600000000D+04  .400000000000D+01
24 09  3 22  4  0  0.0  .175064895302D-03  .318323145621D-11  .000000000000D+00
     .117000000000D+03  .272500000000D+02  .485377360772D-08  .220697367304D+01
     .141374766827D-05  .683401210699D-02  .591389834881D-05  .515366760826D+04
     .144000000000D+05 -.502914190292D-07  .784148989353D+00  .633299350739D-07
     .951088560565D+00  .261093750000D+03 -.640239676644D+00 -.808819404860D-08
     .614311302817D-10  .100000000000D+01  .152400000000D+04  .000000000000D+00
     .485000000000D+01  .000000000000D+00 -.139698386192D-08  .117000000000D+03
     .720600000000D+04  .400000000000D+01
25 09  3 22  4  0  0.0  .314695760608D-03  .225099938689D-10  .000000000000D+00
     .990000000000D+02  .433750000000D+02  .455268963780D-08  .271164215361D+01
     .224635004997D-05  .116832111962D-01  .379607081413D-05  .515366403198D+04
     .144000000000D+05  .283122062683D-06 -.250261901258D+01  .391155481339D-07
     .968842739183D+00  .308218750000D+03 -.121478095899D+01 -.811319509000D-08
     .135719938995D-09  .100000000000D+01  .152400000000D+04  .000000000000D+00
     .685000000000D+01  .000000000000D+00 -.745058059692D-08  .990000000000D+02
     .720600000000D+04  .400000000000D+01
26 09  3 22  4  0  0.0  .524809584022D-04  .227373675443D-11  .000000000000D+00
     .670000000000D+02  .732500000000D+02  .373729853063D-08 -.849697873418D+00
     .416859984398D-05  .202461383305D-01  .879913568497D-05  .515486808968D+04
     .144000000000D+05  .875443220139D-07  .288170515440D+01  .398606061935D-06
     .993241096730D+00  .229250000000D+03  .985585609848D+00 -.787854245863D-08
     .140362989539D-09  .100000000000D+01  .152400000000D+04  .000000000000D+00
     .240000000000D+01  .000000000000D+00 -.651925802231D-08  .670000000000D+02
     .720600000000D+04  .400000000000D+01
28 09  3 22  4  0  0.0 -.237240456045D-04 -.113686837722D-12  .000000000000D+00
     .600000000000D+02 -.875625000000D+02  .451625954891D-08  .150828159773D+01
    -.473670661449D-05  .148183995625D-01  .742077827454D-05  .515364488983D+04
     .144000000000D+05 -.331550836563D-06 -.133087653733D+01 -.137835741043D-06
     .965789065928D+00  .246593750000D+03 -.203916770761D+01 -.819927010394D-08
    -.301441127661D-09  .100000000000D+01  .152400000000D+04  .000000000000D+00
     .240000000000D+01  .000000000000D+00 -.107102096081D-07  .600000000000D+02
     .720600000000D+04  .400000000000D+01
